[{"OBJECT_NAME":"APRIZESAT 8","OBJECT_ID":"2013-066K","EPOCH":"2026-03-09T20:33:12.795840","MEAN_MOTION":14.87425173,"ECCENTRICITY":0.00446225,"INCLINATION":97.8117,"RA_OF_ASC_NODE":17.7888,"ARG_OF_PERICENTER":252.384,"MEAN_ANOMALY":107.25,"EPHEMERIS_TYPE":0,"CLASSIFICATION_TYPE":"U","NORAD_CAT_ID":39425,"ELEMENT_SET_NO":999,"REV_AT_EPOCH":66490,"BSTAR":0.00018960498,"MEAN_MOTION_DOT":1.689e-5,"MEAN_MOTION_DDOT":0},{"OBJECT_NAME":"UNKNOWN","OBJECT_ID":"","EPOCH":"2026-03-09T13:25:19.726176","MEAN_MOTION":14.7583585,"ECCENTRICITY":0.0016207,"INCLINATION":74.0178,"RA_OF_ASC_NODE":150.9386,"ARG_OF_PERICENTER":98.3362,"MEAN_ANOMALY":261.965,"EPHEMERIS_TYPE":0,"CLASSIFICATION_TYPE":"U","NORAD_CAT_ID":87304,"ELEMENT_SET_NO":999,"REV_AT_EPOCH":65928,"BSTAR":0.00029188,"MEAN_MOTION_DOT":1.973e-5,"MEAN_MOTION_DDOT":0}]
